{"fetched_at":"2026-03-29T16:36:15Z","count":15609,"tles":[{"name":"STARLINK-34494","line1":"1 64611U 25137T   26087.75553493  .00026410  00000+0  90040-3 0  9998","line2":"2 64611  53.1598 246.6952 0000747 103.5424 256.5660 15.30208787 43651","category":"Starlink"}]}